{
  "type": "FeatureCollection",
  "features": [
    {
      "type": "Feature",
      "properties": {
        "norad_id": 31025,
        "name": "FENGYUN 1C DEB",
        "group": "fengyun-1c-debris",
        "lat": -80.32588944427573,
        "lon": 104.27577155864783,
        "alt_km": 803.4898919260713,
        "timestamp": "2025-12-22T16:55:17.743485+00:00",
        "meta_object_name": "FENGYUN 1C DEB",
        "meta_object_id": "1999-025BDT",
        "meta_epoch": "2025-12-07T05:28:07.771008",
        "meta_mean_motion": 14.20521805,
        "meta_eccentricity": 0.01734931,
        "meta_inclination": 98.58,
        "meta_ra_of_asc_node": 331.5793,
        "meta_arg_of_pericenter": 28.741,
        "meta_mean_anomaly": 332.3194,
        "meta_ephemeris_type": 0,
        "meta_classification_type": "U",
        "meta_norad_cat_id": 31025,
        "meta_element_set_no": 999,
        "meta_rev_at_epoch": 64287,
        "meta_bstar": 0.0012507545,
        "meta_mean_motion_dot": 3.084e-05,
        "meta_mean_motion_ddot": 0,
        "tle_line1": "1 31025U 99025BDT 25341.22786772  .00003084  00000+0  12508-2 0  9994",
        "tle_line2": "2 31025  98.5800 331.5793 0173493  28.7410 332.3194 14.20521805642873"
      },
      "geometry": {
        "type": "Point",
        "coordinates": [
          104.27577155864783,
          -80.32588944427573
        ]
      }
    },
    {
      "type": "Feature",
      "properties": {
        "norad_id": 31026,
        "name": "FENGYUN 1C DEB",
        "group": "fengyun-1c-debris",
        "lat": 18.480843107872,
        "lon": -71.35502244768547,
        "alt_km": 1023.2122304648128,
        "timestamp": "2025-12-22T16:55:17.743496+00:00",
        "meta_object_name": "FENGYUN 1C DEB",
        "meta_object_id": "1999-025BDU",
        "meta_epoch": "2025-12-16T14:07:08.116896",
        "meta_mean_motion": 13.83400412,
        "meta_eccentricity": 0.01344959,
        "meta_inclination": 98.7801,
        "meta_ra_of_asc_node": 285.8947,
        "meta_arg_of_pericenter": 172.0946,
        "meta_mean_anomaly": 1.2766,
        "meta_ephemeris_type": 0,
        "meta_classification_type": "U",
        "meta_norad_cat_id": 31026,
        "meta_element_set_no": 999,
        "meta_rev_at_epoch": 68079,
        "meta_bstar": 0.00014906948,
        "meta_mean_motion_dot": 1.36e-06,
        "meta_mean_motion_ddot": 0,
        "tle_line1": "1 31026U 99025BDU 25350.58828839  .00000136  00000+0  14907-3 0  9996",
        "tle_line2": "2 31026  98.7801 285.8947 0134495 172.0946   1.2766 13.83400412680793"
      },
      "geometry": {
        "type": "Point",
        "coordinates": [
          -71.35502244768547,
          18.480843107872
        ]
      }
    },
    {
      "type": "Feature",
      "properties": {
        "norad_id": 31028,
        "name": "FENGYUN 1C DEB",
        "group": "fengyun-1c-debris",
        "lat": -49.7786716412066,
        "lon": 97.4708199901924,
        "alt_km": 841.4557323583567,
        "timestamp": "2025-12-22T16:55:17.743506+00:00",
        "meta_object_name": "FENGYUN 1C DEB",
        "meta_object_id": "1999-025BDW",
        "meta_epoch": "2025-12-16T00:45:35.214048",
        "meta_mean_motion": 13.89074855,
        "meta_eccentricity": 0.01643907,
        "meta_inclination": 98.7052,
        "meta_ra_of_asc_node": 281.6698,
        "meta_arg_of_pericenter": 285.3135,
        "meta_mean_anomaly": 72.9908,
        "meta_ephemeris_type": 0,
        "meta_classification_type": "U",
        "meta_norad_cat_id": 31028,
        "meta_element_set_no": 999,
        "meta_rev_at_epoch": 62049,
        "meta_bstar": 0.0002880402,
        "meta_mean_motion_dot": 3.48e-06,
        "meta_mean_motion_ddot": 0,
        "tle_line1": "1 31028U 99025BDW 25350.03165757  .00000348  00000+0  28804-3 0  9997",
        "tle_line2": "2 31028  98.7052 281.6698 0164390 285.3135  72.9908 13.89074855620493"
      },
      "geometry": {
        "type": "Point",
        "coordinates": [
          97.4708199901924,
          -49.7786716412066
        ]
      }
    },
    {
      "type": "Feature",
      "properties": {
        "norad_id": 31029,
        "name": "FENGYUN 1C DEB",
        "group": "fengyun-1c-debris",
        "lat": -26.822600357663905,
        "lon": -101.62504172664565,
        "alt_km": 762.3951827224028,
        "timestamp": "2025-12-22T16:55:17.743516+00:00",
        "meta_object_name": "FENGYUN 1C DEB",
        "meta_object_id": "1999-025BDX",
        "meta_epoch": "2025-12-20T12:17:42.853920",
        "meta_mean_motion": 14.34336499,
        "meta_eccentricity": 0.00900621,
        "meta_inclination": 98.8586,
        "meta_ra_of_asc_node": 251.6054,
        "meta_arg_of_pericenter": 51.2725,
        "meta_mean_anomaly": 126.4832,
        "meta_ephemeris_type": 0,
        "meta_classification_type": "U",
        "meta_norad_cat_id": 31029,
        "meta_element_set_no": 999,
        "meta_rev_at_epoch": 97907,
        "meta_bstar": 0.00025072444,
        "meta_mean_motion_dot": 6.91e-06,
        "meta_mean_motion_ddot": 0,
        "tle_line1": "1 31029U 99025BDX 25354.51230155  .00000691  00000+0  25072-3 0  9995",
        "tle_line2": "2 31029  98.8586 251.6054 0090062  51.2725 126.4832 14.34336499979077"
      },
      "geometry": {
        "type": "Point",
        "coordinates": [
          -101.62504172664565,
          -26.822600357663905
        ]
      }
    },
    {
      "type": "Feature",
      "properties": {
        "norad_id": 31030,
        "name": "FENGYUN 1C DEB",
        "group": "fengyun-1c-debris",
        "lat": 44.932097732351515,
        "lon": -112.5521285339038,
        "alt_km": 804.993441325194,
        "timestamp": "2025-12-22T16:55:17.743529+00:00",
        "meta_object_name": "FENGYUN 1C DEB",
        "meta_object_id": "1999-025BDY",
        "meta_epoch": "2025-12-22T02:53:51.199008",
        "meta_mean_motion": 14.23707671,
        "meta_eccentricity": 0.00272832,
        "meta_inclination": 98.7657,
        "meta_ra_of_asc_node": 58.011,
        "meta_arg_of_pericenter": 57.4585,
        "meta_mean_anomaly": 323.3145,
        "meta_ephemeris_type": 0,
        "meta_classification_type": "U",
        "meta_norad_cat_id": 31030,
        "meta_element_set_no": 999,
        "meta_rev_at_epoch": 96838,
        "meta_bstar": 0.00084082389,
        "meta_mean_motion_dot": 1.883e-05,
        "meta_mean_motion_ddot": 0,
        "tle_line1": "1 31030U 99025BDY 25356.12073147  .00001883  00000+0  84082-3 0  9992",
        "tle_line2": "2 31030  98.7657  58.0110 0027283  57.4585 323.3145 14.23707671968385"
      },
      "geometry": {
        "type": "Point",
        "coordinates": [
          -112.5521285339038,
          44.932097732351515
        ]
      }
    },
    {
      "type": "Feature",
      "properties": {
        "norad_id": 31031,
        "name": "FENGYUN 1C DEB",
        "group": "fengyun-1c-debris",
        "lat": 39.31702433903828,
        "lon": -93.44732075939706,
        "alt_km": 828.2621998075692,
        "timestamp": "2025-12-22T16:55:17.743539+00:00",
        "meta_object_name": "FENGYUN 1C DEB",
        "meta_object_id": "1999-025BDZ",
        "meta_epoch": "2025-12-15T06:19:29.672832",
        "meta_mean_motion": 14.20989204,
        "meta_eccentricity": 0.00278558,
        "meta_inclination": 99.0717,
        "meta_ra_of_asc_node": 266.4341,
        "meta_arg_of_pericenter": 179.1838,
        "meta_mean_anomaly": 334.5534,
        "meta_ephemeris_type": 0,
        "meta_classification_type": "U",
        "meta_norad_cat_id": 31031,
        "meta_element_set_no": 999,
        "meta_rev_at_epoch": 96890,
        "meta_bstar": 0.00042975182,
        "meta_mean_motion_dot": 8.88e-06,
        "meta_mean_motion_ddot": 0,
        "tle_line1": "1 31031U 99025BDZ 25349.26353788  .00000888  00000+0  42975-3 0  9991",
        "tle_line2": "2 31031  99.0717 266.4341 0027855 179.1838 334.5534 14.20989204968901"
      },
      "geometry": {
        "type": "Point",
        "coordinates": [
          -93.44732075939706,
          39.31702433903828
        ]
      }
    },
    {
      "type": "Feature",
      "properties": {
        "norad_id": 31032,
        "name": "FENGYUN 1C DEB",
        "group": "fengyun-1c-debris",
        "lat": 71.52946019105252,
        "lon": -144.43384360836623,
        "alt_km": 832.0199665980317,
        "timestamp": "2025-12-22T16:55:17.743551+00:00",
        "meta_object_name": "FENGYUN 1C DEB",
        "meta_object_id": "1999-025BEA",
        "meta_epoch": "2025-12-21T16:45:38.511360",
        "meta_mean_motion": 14.02233347,
        "meta_eccentricity": 0.01392314,
        "meta_inclination": 99.3985,
        "meta_ra_of_asc_node": 4.8025,
        "meta_arg_of_pericenter": 171.663,
        "meta_mean_anomaly": 256.5598,
        "meta_ephemeris_type": 0,
        "meta_classification_type": "U",
        "meta_norad_cat_id": 31032,
        "meta_element_set_no": 999,
        "meta_rev_at_epoch": 95107,
        "meta_bstar": 0.0011606313,
        "meta_mean_motion_dot": 1.889e-05,
        "meta_mean_motion_ddot": 0,
        "tle_line1": "1 31032U 99025BEA 25355.69836240  .00001889  00000+0  11606-2 0  9993",
        "tle_line2": "2 31032  99.3985   4.8025 0139231 171.6630 256.5598 14.02233347951077"
      },
      "geometry": {
        "type": "Point",
        "coordinates": [
          -144.43384360836623,
          71.52946019105252
        ]
      }
    }
  ]
}